FLOCK 4S-17             
1 47492U 21006CH  22323.47094303  .00005091  00000+0  24427-3 0  9993
2 47492  97.4314  20.2712 0010679  98.6916 261.5528 15.19274012100778
FLOCK 4S-3              
1 47494U 21006CK  22323.10916691  .00019017  00000+0  94859-3 0  9997
2 47494  97.4185  18.2482 0010419 100.0600 260.1810 15.17519508100675
FLOCK 4S-27             
1 47495U 21006CL  22324.12524130  .00006065  00000+0  29023-3 0  9994
2 47495  97.4182  19.9052 0011042  96.4679 263.7813 15.19283385100878
FLOCK 4S-18             
1 47496U 21006CM  22323.13655596  .00012821  00000+0  61027-3 0  9993
2 47496  97.4272  19.8380 0010283 100.9332 259.3148 15.19240403100725
FLOCK 4S-26             
1 47497U 21006CN  22324.16361170  .00011644  00000+0  48745-3 0  9994
2 47497  97.4173  21.0526 0009196  90.7514 269.4776 15.23675243100955
FLOCK 4S-2              
1 47498U 21006CP  22323.38413416  .00024084  00000+0  11112-2 0  9998
2 47498  97.4190  19.2721 0009715  97.2900 262.9439 15.20187714100760
FLOCK 4S-40             
1 47499U 21006CQ  22324.13233999  .00008706  00000+0  41652-3 0  9995
2 47499  97.4301  20.7962 0011236  98.0281 262.2229 15.19161272100872
FLOCK 4S-19             
1 47500U 21006CR  22324.11332874  .00005115  00000+0  24446-3 0  9991
2 47500  97.4290  20.8038 0011321  94.4132 265.8396 15.19397757100870
FLOCK 4S-28             
1 47514U 21006DE  22323.14908797  .00010304  00000+0  49263-3 0  9991
2 47514  97.4181  18.7291 0008792 106.8521 253.3678 15.19157977101671
FLOCK 4S-5              
1 47515U 21006DF  22324.39821621  .00013070  00000+0  62294-3 0  9992
2 47515  97.4171  19.9027 0009122 104.3339 255.8909 15.19202216100905
FLOCK 4S-16             
1 47516U 21006DG  22323.61949989  .00018896  00000+0  89727-3 0  9996
2 47516  97.4294  20.1505 0008926 105.5565 254.6655 15.19250543101746
FLOCK 4S-6              
1 47518U 21006DJ  22323.42296171  .00015735  00000+0  74640-3 0  9992
2 47518  97.4191  19.0265 0008951 109.0913 251.1292 15.19325857101726
FLOCK 4S-29             
1 47520U 21006DL  22323.41800363  .00013889  00000+0  66171-3 0  9996
2 47520  97.4197  19.0853 0008616 107.3782 252.8396 15.19203767100751
FLOCK 4S-15             
1 47521U 21006DM  22323.11568681  .00019098  00000+0  95354-3 0  9991
2 47521  97.4305  19.1330 0008550 114.2081 246.0047 15.17501960101641
FLOCK 4S-37             
1 47522U 21006DN  22323.62470362  .00014263  00000+0  67773-3 0  9999
2 47522  97.4278  20.0232 0008683 107.6444 252.5739 15.19290961101759
FLOCK 4S-10             
1 47523U 21006DP  22324.12300022  .00005345  00000+0  25635-3 0  9993
2 47523  97.4220  19.8636 0008639 110.5700 249.6462 15.19281176100858
FLOCK 4S-7              
1 47527U 21006DT  22323.62728500  .00011596  00000+0  54961-3 0  9995
2 47527  97.4184  19.2141 0008748 108.1519 252.0668 15.19426828101748
FLOCK 4S-14             
1 47528U 21006DU  22324.09468639  .00013538  00000+0  64190-3 0  9995
2 47528  97.4287  20.4907 0008737 106.9460 253.2733 15.19377071101815
FLOCK 4S-36             
1 47530U 21006DW  22324.16197566  .00013455  00000+0  63802-3 0  9991
2 47530  97.4276  20.4697 0008396 105.7103 254.5058 15.19377411101827
FLOCK 4S-24             
1 47539U 21006DZ  22324.09886130  .00008642  00000+0  41031-3 0  9996
2 47539  97.4230  20.2463 0011703  92.7581 267.4994 15.19423108100877
FLOCK 4S-20             
1 47540U 21006EA  22324.42778298  .00007159  00000+0  34021-3 0  9993
2 47540  97.4285  21.0476 0011057  92.4370 267.8131 15.19463226 99999
FLOCK 4S-25             
1 47542U 21006EC  22323.64463023  .00006550  00000+0  31211-3 0  9997
2 47542  97.4201  19.6056 0011329  96.4908 263.7617 15.19397862 99872
FLOCK 4S-1              
1 47543U 21006ED  22324.10417599  .00005368  00000+0  25629-3 0  9999
2 47543  97.4203  20.0509 0010889  91.7447 268.5035 15.19414002 99941
FLOCK 4S-30             
1 47544U 21006EE  22323.62388762  .00013220  00000+0  62757-3 0  9994
2 47544  97.4202  19.3202 0008419 106.4625 253.7536 15.19342775101741
FLOCK 4S-23             
1 47545U 21006EF  22324.40971235  .00005437  00000+0  25972-3 0  9994
2 47545  97.4233  20.6881 0011333  93.6149 266.6382 15.19387062101897
FLOCK 4S-42             
1 47612U 21006EQ  22323.41732615  .00008747  00000+0  41751-3 0  9996
2 47612  97.4260  19.7884 0011392 107.3198 252.9284 15.19237585100764
FLOCK 4S-48             
1 47617U 21006EJ  22323.39414793  .00015979  00000+0  75601-3 0  9998
2 47617  97.4244  19.8686 0012049  89.1135 271.1480 15.19382240101749
FLOCK 4S-46             
1 47684U 21006EK  22324.39461712  .00005716  00000+0  27360-3 0  9993
2 47684  97.4249  20.7967 0008338 114.7585 245.4518 15.19319628100926
FLOCK 4S-47             
1 47685U 21006EL  22324.12837358  .00009107  00000+0  43397-3 0  9994
2 47685  97.4222  19.9595 0007476 110.1671 250.0368 15.19317988100857
FLOCK 4S-44             
1 47686U 21006EM  22323.59054916  .00005583  00000+0  26808-3 0  9998
2 47686  97.4267  20.0883 0012116 103.7374 256.5210 15.19187397100794
FLOCK 4S-43             
1 47687U 21006EN  22323.37797448  .00009157  00000+0  43532-3 0  9993
2 47687  97.4237  19.3944 0007667  99.1987 261.0115 15.19396734101719
FLOCK 4S-45             
1 47688U 21006EP  22323.58714294  .00005528  00000+0  26473-3 0  9998
2 47688  97.4250  19.5404 0011325  89.9604 270.2928 15.19294392101730
FLOCK 4S-41             
1 47698U 21006ER  22324.14165332  .00005162  00000+0  24844-3 0  9999
2 47698  97.4303  20.7250 0010791  98.0473 262.1987 15.19158137100868
FLOCK 4X-8              
1 50992U 22002J   22324.16972187  .00005081  00000+0  25141-3 0  9994
2 50992  97.4707  29.2096 0009535 249.7325 110.2884 15.18216557 47021
FLOCK 4X-44             
1 50994U 22002L   22324.17614852  .00014001  00000+0  68644-3 0  9996
2 50994  97.4735  29.2882 0009609 249.0239 110.9967 15.18199018 47027
FLOCK 4X-2              
1 50996U 22002N   22324.10834313  .00004884  00000+0  24199-3 0  9992
2 50996  97.4726  29.1871 0009519 249.2693 110.7521 15.18188018 47013
FLOCK 4X-20             
1 50997U 22002P   22323.64416404  .00014314  00000+0  70218-3 0  9990
2 50997  97.4722  28.7264 0009372 252.2282 107.7929 15.18175943 46948
FLOCK 4X-30             
1 51000U 22002S   22323.64488370  .00005867  00000+0  28993-3 0  9993
2 51000  97.4671  28.5061 0009471 241.9244 118.1032 15.18192917 46944
FLOCK 4X-22             
1 51003U 22002V   22324.16799575  .00007340  00000+0  36142-3 0  9999
2 51003  97.4711  29.1883 0009567 251.9613 108.0579 15.18234182 47023
FLOCK 4X-5              
1 51004U 22002W   22323.63882754  .00011536  00000+0  56668-3 0  9990
2 51004  97.4668  28.5581 0009810 244.1977 115.8245 15.18178963 46941
FLOCK 4X-41             
1 51005U 22002X   22323.63718015  .00006233  00000+0  30789-3 0  9993
2 51005  97.4665  28.4911 0009498 239.9068 120.1225 15.18184409 46949
FLOCK 4X-3              
1 51006U 22002Y   22323.63623530  .00006977  00000+0  34427-3 0  9999
2 51006  97.4720  28.7318 0010134 249.3717 110.6431 15.18174780 46945
FLOCK 4X-18             
1 51007U 22002Z   22324.35949856  .00012743  00000+0  62549-3 0  9996
2 51007  97.4686  29.2925 0010290 241.6501 118.3696 15.18175043 47050
FLOCK 4X-37             
1 51009U 22002AB  22323.63323103  .00006163  00000+0  30454-3 0  9998
2 51009  97.4724  28.7702 0010113 248.8038 111.2116 15.18171270 46944
FLOCK 4X-15             
1 51010U 22002AC  22324.15374066  .00005092  00000+0  25192-3 0  9995
2 51010  97.4734  29.3165 0010551 244.6478 115.3664 15.18208699 47024
FLOCK 4X-29             
1 51011U 22002AD  22324.15856527  .00014554  00000+0  71346-3 0  9998
2 51011  97.4675  29.0772 0010205 241.0378 118.9833 15.18191102 47023
FLOCK 4X-27             
1 51012U 22002AE  22324.15709021  .00013031  00000+0  63872-3 0  9999
2 51012  97.4716  29.2416 0010510 249.7604 110.2500 15.18219200 47029
FLOCK 4X-12             
1 51015U 22002AH  22324.15104395  .00014292  00000+0  70023-3 0  9991
2 51015  97.4722  29.2587 0010746 243.0930 116.9206 15.18208646 47026
FLOCK 4X-25             
1 51016U 22002AJ  22323.43065290  .00011220  00000+0  55083-3 0  9999
2 51016  97.4701  28.4728 0010443 254.3331 105.6751 15.18201090 46919
FLOCK 4X-1              
1 51017U 22002AK  22323.62201980  .00015101  00000+0  74001-3 0  9992
2 51017  97.4658  28.5955 0011130 246.2960 113.7729 15.18185201 46949
FLOCK 4X-42             
1 51018U 22002AL  22324.15738823  .00018399  00000+0  90023-3 0  9997
2 51018  97.4650  29.0561 0010566 236.6642 152.1245 15.18201157 47022
FLOCK 4X-16             
1 51020U 22002AN  22324.14735696  .00009637  00000+0  47317-3 0  9997
2 51020  97.4674  29.0704 0010666 238.6395 121.3796 15.18237465 47028
FLOCK 4X-38             
1 51023U 22002AR  22323.61897064  .00017439  00000+0  85388-3 0  9998
2 51023  97.4717  28.7637 0011009 247.4147 112.5923 15.18183305 46942
FLOCK 4X-32             
1 51024U 22002AS  22323.15638878  .00016135  00000+0  79028-3 0  9990
2 51024  97.4729  28.3254 0010761 245.9049 114.1060 15.18192638 46876
FLOCK 4X-26             
1 51026U 22002AU  22323.61431748  .00014005  00000+0  68680-3 0  9996
2 51026  97.4681  28.6131 0010501 245.1890 114.8252 15.18183858 46942
FLOCK 4X-43             
1 51027U 22002AV  22324.14263400  .00011634  00000+0  57113-3 0  9998
2 51027  97.4681  29.1156 0010623 240.9354 119.0817 15.18191592 47027
FLOCK 4X-13             
1 51028U 22002AW  22323.15119108  .00011570  00000+0  56863-3 0  9994
2 51028  97.4683  28.1370 0010642 244.2188 115.7949 15.18151953 46878
FLOCK 4X-39             
1 51029U 22002AX  22324.13332999  .00005962  00000+0  29396-3 0  9998
2 51029  97.4681  29.1250 0010489 236.9634 123.0593 15.18259865 47024
FLOCK 4X-17             
1 51035U 22002BD  22323.60924147  .00009479  00000+0  46659-3 0  9996
2 51035  97.4719  28.5986 0006843 250.7427 109.3067 15.18180787 46933
FLOCK 4X-10             
1 51037U 22002BF  22324.17768611  .00013101  00000+0  64128-3 0  9991
2 51037  97.4735  29.2761 0009339 246.9045 113.1205 15.18275519 47013
